[{"OBJECT_NAME":"STARLINK-11576 [DTC]","OBJECT_ID":"2025-031N","EPOCH":"2026-03-09T04:42:45.680256","MEAN_MOTION":15.7085467,"ECCENTRICITY":0.00014321,"INCLINATION":42.9994,"RA_OF_ASC_NODE":4.5346,"ARG_OF_PERICENTER":259.1455,"MEAN_ANOMALY":100.9251,"EPHEMERIS_TYPE":0,"CLASSIFICATION_TYPE":"U","NORAD_CAT_ID":62993,"ELEMENT_SET_NO":999,"REV_AT_EPOCH":6265,"BSTAR":0.0018342349,"MEAN_MOTION_DOT":0.0024204,"MEAN_MOTION_DDOT":0},{"OBJECT_NAME":"BREEZE-M DEB [TANK]","OBJECT_ID":"2012-007C","EPOCH":"2026-03-08T12:22:17.460768","MEAN_MOTION":5.6976166,"ECCENTRICITY":0.49373378,"INCLINATION":49.5897,"RA_OF_ASC_NODE":91.1175,"ARG_OF_PERICENTER":54.4791,"MEAN_ANOMALY":342.266,"EPHEMERIS_TYPE":0,"CLASSIFICATION_TYPE":"U","NORAD_CAT_ID":38089,"ELEMENT_SET_NO":999,"REV_AT_EPOCH":28330,"BSTAR":0.0009491653,"MEAN_MOTION_DOT":4.146e-5,"MEAN_MOTION_DDOT":0}]
